KUIPER-00053            
1 64513U 25134P   25308.01113936  .00003450  00000+0  48273-3 0  9994
2 64513  51.9014  58.5776 0001938 257.1212 102.9534 14.79806383 21602
KUIPER-00054            
1 64514U 25134Q   25308.33336806 -.00014887  00000+0 -18262-2 0  9995
2 64514  51.8986  52.4333 0004070 240.1954 227.6093 14.82181046  4856
KUIPER-00055            
1 64515U 25134R   25308.33336806  .00003225  00000+0  18178-3 0  9995
2 64515  51.8922  48.4671 0001194 339.8366  41.4822 15.15974917  4995
KUIPER-00056            
1 64516U 25134S   25307.62877082  .00009738  00000+0  13044-2 0  9994
2 64516  51.9027  61.5477 0001771 215.4434 144.6411 14.79934567 21534
KUIPER-00057            
1 64517U 25134T   25307.75546790 -.00024098  00000+0 -31451-2 0  9998
2 64517  51.9001  68.4855 0008907 220.5211 139.5089 14.79876233 21440
KUIPER-00058            
1 64518U 25134U   25308.03283840 -.00002326  00000+0 -27637-3 0  9997
2 64518  51.9000  61.1770 0004414 250.0881 109.9606 14.79884018 21576
KUIPER-00059            
1 64519U 25134V   25308.33336806  .00005772  00000+0  80061-3 0  9998
2 64519  51.8992  54.8888 0003880  55.6475  86.6668 14.79122823  5153
KUIPER-00060            
1 64520U 25134W   25308.03656532  .00005633  00000+0  76677-3 0  9992
2 64520  51.9023  57.2502 0001244 318.4852  41.6016 14.79963224 21617
